{
  "type": "FeatureCollection",
  "features": [
    {
      "type": "Feature",
      "properties": {
        "norad_id": 31321,
        "name": "FENGYUN 1C DEB",
        "group": "fengyun-1c-debris",
        "lat": 80.9295709593709,
        "lon": -2.951688376886579,
        "alt_km": 832.5577121814767,
        "timestamp": "2025-12-18T15:47:11.505093+00:00",
        "meta_object_name": "FENGYUN 1C DEB",
        "meta_object_id": "1999-025BPZ",
        "meta_epoch": "2025-12-16T00:31:45.218496",
        "meta_mean_motion": 14.13824932,
        "meta_eccentricity": 0.00301337,
        "meta_inclination": 98.7337,
        "meta_ra_of_asc_node": 68.8165,
        "meta_arg_of_pericenter": 168.42,
        "meta_mean_anomaly": 191.7672,
        "meta_ephemeris_type": 0,
        "meta_classification_type": "U",
        "meta_norad_cat_id": 31321,
        "meta_element_set_no": 999,
        "meta_rev_at_epoch": 57430,
        "meta_bstar": 0.00014467223,
        "meta_mean_motion_dot": 2.32e-06,
        "meta_mean_motion_ddot": 0,
        "tle_line1": "1 31321U 99025BPZ 25350.02205114  .00000232  00000+0  14467-3 0  9996",
        "tle_line2": "2 31321  98.7337  68.8165 0030133 168.4200 191.7672 14.13824932574303"
      },
      "geometry": {
        "type": "Point",
        "coordinates": [
          -2.951688376886579,
          80.9295709593709
        ]
      }
    },
    {
      "type": "Feature",
      "properties": {
        "norad_id": 31322,
        "name": "FENGYUN 1C DEB",
        "group": "fengyun-1c-debris",
        "lat": -25.418208210637392,
        "lon": 59.933025540817816,
        "alt_km": 828.8960926088266,
        "timestamp": "2025-12-18T15:47:11.505103+00:00",
        "meta_object_name": "FENGYUN 1C DEB",
        "meta_object_id": "1999-025BQA",
        "meta_epoch": "2025-12-17T10:15:00.213120",
        "meta_mean_motion": 13.72998867,
        "meta_eccentricity": 0.02382994,
        "meta_inclination": 98.5728,
        "meta_ra_of_asc_node": 54.7189,
        "meta_arg_of_pericenter": 357.7068,
        "meta_mean_anomaly": 17.858,
        "meta_ephemeris_type": 0,
        "meta_classification_type": "U",
        "meta_norad_cat_id": 31322,
        "meta_element_set_no": 999,
        "meta_rev_at_epoch": 62340,
        "meta_bstar": 0.00018215464,
        "meta_mean_motion_dot": 1.68e-06,
        "meta_mean_motion_ddot": 0,
        "tle_line1": "1 31322U 99025BQA 25351.42708580  .00000168  00000+0  18215-3 0  9990",
        "tle_line2": "2 31322  98.5728  54.7189 0238299 357.7068  17.8580 13.72998867623409"
      },
      "geometry": {
        "type": "Point",
        "coordinates": [
          59.933025540817816,
          -25.418208210637392
        ]
      }
    },
    {
      "type": "Feature",
      "properties": {
        "norad_id": 31323,
        "name": "FENGYUN 1C DEB",
        "group": "fengyun-1c-debris",
        "lat": -25.06232148344146,
        "lon": 36.038348447837436,
        "alt_km": 804.3626492607091,
        "timestamp": "2025-12-18T15:47:11.505113+00:00",
        "meta_object_name": "FENGYUN 1C DEB",
        "meta_object_id": "1999-025BQB",
        "meta_epoch": "2025-12-12T20:17:42.698976",
        "meta_mean_motion": 14.27591812,
        "meta_eccentricity": 0.00313733,
        "meta_inclination": 99.4214,
        "meta_ra_of_asc_node": 25.3246,
        "meta_arg_of_pericenter": 79.5452,
        "meta_mean_anomaly": 280.9259,
        "meta_ephemeris_type": 0,
        "meta_classification_type": "U",
        "meta_norad_cat_id": 31323,
        "meta_element_set_no": 999,
        "meta_rev_at_epoch": 63982,
        "meta_bstar": 0.0021568292,
        "meta_mean_motion_dot": 5.29e-05,
        "meta_mean_motion_ddot": 0,
        "tle_line1": "1 31323U 99025BQB 25346.84563309  .00005290  00000+0  21568-2 0  9994",
        "tle_line2": "2 31323  99.4214  25.3246 0031373  79.5452 280.9259 14.27591812639827"
      },
      "geometry": {
        "type": "Point",
        "coordinates": [
          36.038348447837436,
          -25.06232148344146
        ]
      }
    },
    {
      "type": "Feature",
      "properties": {
        "norad_id": 31324,
        "name": "FENGYUN 1C DEB",
        "group": "fengyun-1c-debris",
        "lat": 11.139039385857215,
        "lon": 96.07497166660147,
        "alt_km": 861.6461320247145,
        "timestamp": "2025-12-18T15:47:11.505124+00:00",
        "meta_object_name": "FENGYUN 1C DEB",
        "meta_object_id": "1999-025BQC",
        "meta_epoch": "2025-12-16T13:45:44.310528",
        "meta_mean_motion": 14.14697493,
        "meta_eccentricity": 0.0049164,
        "meta_inclination": 99.1237,
        "meta_ra_of_asc_node": 272.1325,
        "meta_arg_of_pericenter": 293.281,
        "meta_mean_anomaly": 66.3192,
        "meta_ephemeris_type": 0,
        "meta_classification_type": "U",
        "meta_norad_cat_id": 31324,
        "meta_element_set_no": 999,
        "meta_rev_at_epoch": 96540,
        "meta_bstar": 0.0001595233,
        "meta_mean_motion_dot": 2.64e-06,
        "meta_mean_motion_ddot": 0,
        "tle_line1": "1 31324U 99025BQC 25350.57342952  .00000264  00000+0  15952-3 0  9996",
        "tle_line2": "2 31324  99.1237 272.1325 0049164 293.2810  66.3192 14.14697493965406"
      },
      "geometry": {
        "type": "Point",
        "coordinates": [
          96.07497166660147,
          11.139039385857215
        ]
      }
    },
    {
      "type": "Feature",
      "properties": {
        "norad_id": 31325,
        "name": "FENGYUN 1C DEB",
        "group": "fengyun-1c-debris",
        "lat": 52.47418807164678,
        "lon": -81.22424686949677,
        "alt_km": 818.9146500595898,
        "timestamp": "2025-12-18T15:47:11.505134+00:00",
        "meta_object_name": "FENGYUN 1C DEB",
        "meta_object_id": "1999-025BQD",
        "meta_epoch": "2025-12-17T00:12:23.735520",
        "meta_mean_motion": 14.16922892,
        "meta_eccentricity": 0.00720914,
        "meta_inclination": 98.9915,
        "meta_ra_of_asc_node": 85.2122,
        "meta_arg_of_pericenter": 208.4071,
        "meta_mean_anomaly": 151.3165,
        "meta_ephemeris_type": 0,
        "meta_classification_type": "U",
        "meta_norad_cat_id": 31325,
        "meta_element_set_no": 999,
        "meta_rev_at_epoch": 59838,
        "meta_bstar": 0.0016097339,
        "meta_mean_motion_dot": 3.269e-05,
        "meta_mean_motion_ddot": 0,
        "tle_line1": "1 31325U 99025BQD 25351.00860805  .00003269  00000+0  16097-2 0  9996",
        "tle_line2": "2 31325  98.9915  85.2122 0072091 208.4071 151.3165 14.16922892598387"
      },
      "geometry": {
        "type": "Point",
        "coordinates": [
          -81.22424686949677,
          52.47418807164678
        ]
      }
    },
    {
      "type": "Feature",
      "properties": {
        "norad_id": 31326,
        "name": "FENGYUN 1C DEB",
        "group": "fengyun-1c-debris",
        "lat": 51.144207835573376,
        "lon": -135.8287844226323,
        "alt_km": 556.0530377752448,
        "timestamp": "2025-12-18T15:47:11.505144+00:00",
        "meta_object_name": "FENGYUN 1C DEB",
        "meta_object_id": "1999-025BQE",
        "meta_epoch": "2025-12-15T15:32:28.923936",
        "meta_mean_motion": 15.00424804,
        "meta_eccentricity": 0.00131933,
        "meta_inclination": 98.9962,
        "meta_ra_of_asc_node": 232.0333,
        "meta_arg_of_pericenter": 356.0949,
        "meta_mean_anomaly": 4.0165,
        "meta_ephemeris_type": 0,
        "meta_classification_type": "U",
        "meta_norad_cat_id": 31326,
        "meta_element_set_no": 999,
        "meta_rev_at_epoch": 73789,
        "meta_bstar": 0.0045407433,
        "meta_mean_motion_dot": 0.00057569,
        "meta_mean_motion_ddot": 0,
        "tle_line1": "1 31326U 99025BQE 25349.64755699  .00057569  00000+0  45407-2 0  9997",
        "tle_line2": "2 31326  98.9962 232.0333 0013193 356.0949   4.0165 15.00424804737897"
      },
      "geometry": {
        "type": "Point",
        "coordinates": [
          -135.8287844226323,
          51.144207835573376
        ]
      }
    },
    {
      "type": "Feature",
      "properties": {
        "norad_id": 31327,
        "name": "FENGYUN 1C DEB",
        "group": "fengyun-1c-debris",
        "lat": 80.9761227924557,
        "lon": -90.01089785028509,
        "alt_km": 533.376455215177,
        "timestamp": "2025-12-18T15:47:11.505153+00:00",
        "meta_object_name": "FENGYUN 1C DEB",
        "meta_object_id": "1999-025BQF",
        "meta_epoch": "2025-12-15T11:07:00.334848",
        "meta_mean_motion": 15.11066162,
        "meta_eccentricity": 0.00861612,
        "meta_inclination": 98.985,
        "meta_ra_of_asc_node": 351.3165,
        "meta_arg_of_pericenter": 1.3124,
        "meta_mean_anomaly": 358.8311,
        "meta_ephemeris_type": 0,
        "meta_classification_type": "U",
        "meta_norad_cat_id": 31327,
        "meta_element_set_no": 999,
        "meta_rev_at_epoch": 140,
        "meta_bstar": 0.0010385102,
        "meta_mean_motion_dot": 0.00018943,
        "meta_mean_motion_ddot": 0,
        "tle_line1": "1 31327U 99025BQF 25349.46319832  .00018943  00000+0  10385-2 0  9993",
        "tle_line2": "2 31327  98.9850 351.3165 0086161   1.3124 358.8311 15.11066162  1407"
      },
      "geometry": {
        "type": "Point",
        "coordinates": [
          -90.01089785028509,
          80.9761227924557
        ]
      }
    }
  ]
}